{
  "type": "FeatureCollection",
  "features": [
    {
      "type": "Feature",
      "properties": {
        "norad_id": 66052,
        "name": "HRC MONOBLOCK CAMERA",
        "group": "stations",
        "lat": -15.269060853932816,
        "lon": 147.74526427250055,
        "alt_km": 410.92063450526894,
        "timestamp": "2025-12-08T23:34:02.757226+00:00",
        "meta_object_name": "HRC MONOBLOCK CAMERA",
        "meta_object_id": "1998-067XR",
        "meta_epoch": "2025-12-08T12:50:46.242816",
        "meta_mean_motion": 15.53711027,
        "meta_eccentricity": 0.00039304,
        "meta_inclination": 51.6285,
        "meta_ra_of_asc_node": 162.4643,
        "meta_arg_of_pericenter": 166.8031,
        "meta_mean_anomaly": 193.3063,
        "meta_ephemeris_type": 0,
        "meta_classification_type": "U",
        "meta_norad_cat_id": 66052,
        "meta_element_set_no": 999,
        "meta_rev_at_epoch": 818,
        "meta_bstar": 0.00061066851,
        "meta_mean_motion_dot": 0.00039544,
        "meta_mean_motion_ddot": 0,
        "tle_line1": "1 66052U 98067XR  25342.53525744  .00039544  00000+0  61067-3 0  9997",
        "tle_line2": "2 66052  51.6285 162.4643 0003930 166.8031 193.3063 15.53711027  8188"
      },
      "geometry": {
        "type": "Point",
        "coordinates": [
          147.74526427250055,
          -15.269060853932816
        ]
      }
    },
    {
      "type": "Feature",
      "properties": {
        "norad_id": 66174,
        "name": "HTV-X1",
        "group": "stations",
        "lat": -45.88118043735238,
        "lon": 106.29515310778497,
        "alt_km": 422.08910936418397,
        "timestamp": "2025-12-08T23:34:02.757237+00:00",
        "meta_object_name": "HTV-X1",
        "meta_object_id": "2025-241A",
        "meta_epoch": "2025-12-08T13:01:02.621280",
        "meta_mean_motion": 15.49420853,
        "meta_eccentricity": 0.00033936,
        "meta_inclination": 51.6307,
        "meta_ra_of_asc_node": 163.2617,
        "meta_arg_of_pericenter": 220.7658,
        "meta_mean_anomaly": 139.3077,
        "meta_ephemeris_type": 0,
        "meta_classification_type": "U",
        "meta_norad_cat_id": 66174,
        "meta_element_set_no": 999,
        "meta_rev_at_epoch": 51,
        "meta_bstar": 0.00023027995,
        "meta_mean_motion_dot": 0.00012445,
        "meta_mean_motion_ddot": 0,
        "tle_line1": "1 66174U 25241A   25342.54239145  .00012445  00000+0  23028-3 0  9990",
        "tle_line2": "2 66174  51.6307 163.2617 0003393 220.7658 139.3077 15.49420853   519"
      },
      "geometry": {
        "type": "Point",
        "coordinates": [
          106.29515310778497,
          -45.88118043735238
        ]
      }
    },
    {
      "type": "Feature",
      "properties": {
        "norad_id": 66515,
        "name": "SZ-21 MODULE",
        "group": "stations",
        "lat": 32.19482717027064,
        "lon": 173.50695061329125,
        "alt_km": 377.6889490308449,
        "timestamp": "2025-12-08T23:34:02.757247+00:00",
        "meta_object_name": "SZ-21 MODULE",
        "meta_object_id": "2025-246C",
        "meta_epoch": "2025-12-08T12:17:19.006656",
        "meta_mean_motion": 15.62178331,
        "meta_eccentricity": 0.00062383,
        "meta_inclination": 41.4773,
        "meta_ra_of_asc_node": 41.8306,
        "meta_arg_of_pericenter": 236.9164,
        "meta_mean_anomaly": 123.1077,
        "meta_ephemeris_type": 0,
        "meta_classification_type": "U",
        "meta_norad_cat_id": 66515,
        "meta_element_set_no": 999,
        "meta_rev_at_epoch": 378,
        "meta_bstar": 0.00033876447,
        "meta_mean_motion_dot": 0.00030446,
        "meta_mean_motion_ddot": 0,
        "tle_line1": "1 66515U 25246C   25342.51202554  .00030446  00000+0  33876-3 0  9998",
        "tle_line2": "2 66515  41.4773  41.8306 0006238 236.9164 123.1077 15.62178331  3789"
      },
      "geometry": {
        "type": "Point",
        "coordinates": [
          173.50695061329125,
          32.19482717027064
        ]
      }
    },
    {
      "type": "Feature",
      "properties": {
        "norad_id": 66645,
        "name": "SHENZHOU-22",
        "group": "stations",
        "lat": -41.033083817342785,
        "lon": -60.249846922584624,
        "alt_km": 394.6688944786474,
        "timestamp": "2025-12-08T23:34:02.757257+00:00",
        "meta_object_name": "SHENZHOU-22",
        "meta_object_id": "2025-272A",
        "meta_epoch": "2025-12-08T14:45:28.776096",
        "meta_mean_motion": 15.58905517,
        "meta_eccentricity": 0.00091311,
        "meta_inclination": 41.4682,
        "meta_ra_of_asc_node": 41.7451,
        "meta_arg_of_pericenter": 357.4459,
        "meta_mean_anomaly": 2.6332,
        "meta_ephemeris_type": 0,
        "meta_classification_type": "U",
        "meta_norad_cat_id": 66645,
        "meta_element_set_no": 999,
        "meta_rev_at_epoch": 26300,
        "meta_bstar": 0.0003572809,
        "meta_mean_motion_dot": 0.0002832,
        "meta_mean_motion_ddot": 0,
        "tle_line1": "1 66645U 25272A   25342.61491639  .00028320  00000+0  35728-3 0  9992",
        "tle_line2": "2 66645  41.4682  41.7451 0009131 357.4459   2.6332 15.58905517263000"
      },
      "geometry": {
        "type": "Point",
        "coordinates": [
          -60.249846922584624,
          -41.033083817342785
        ]
      }
    },
    {
      "type": "Feature",
      "properties": {
        "norad_id": 66664,
        "name": "SOYUZ-MS 28",
        "group": "stations",
        "lat": -45.88117932952533,
        "lon": 106.29515624673326,
        "alt_km": 422.08910941945305,
        "timestamp": "2025-12-08T23:34:02.757275+00:00",
        "meta_object_name": "SOYUZ-MS 28",
        "meta_object_id": "2025-275A",
        "meta_epoch": "2025-12-08T13:01:02.621280",
        "meta_mean_motion": 15.49420853,
        "meta_eccentricity": 0.00033936,
        "meta_inclination": 51.6307,
        "meta_ra_of_asc_node": 163.2617,
        "meta_arg_of_pericenter": 220.7658,
        "meta_mean_anomaly": 139.3077,
        "meta_ephemeris_type": 0,
        "meta_classification_type": "U",
        "meta_norad_cat_id": 66664,
        "meta_element_set_no": 999,
        "meta_rev_at_epoch": 128,
        "meta_bstar": 0.00023027995,
        "meta_mean_motion_dot": 0.00012445,
        "meta_mean_motion_ddot": 0,
        "tle_line1": "1 66664U 25275A   25342.54239145  .00012445  00000+0  23028-3 0  9991",
        "tle_line2": "2 66664  51.6307 163.2617 0003393 220.7658 139.3077 15.49420853  1288"
      },
      "geometry": {
        "type": "Point",
        "coordinates": [
          106.29515624673326,
          -45.88117932952533
        ]
      }
    },
    {
      "type": "Feature",
      "properties": {
        "norad_id": 66906,
        "name": "1998-067XS",
        "group": "stations",
        "lat": -36.541550936412364,
        "lon": 125.09341707822216,
        "alt_km": 421.5545444498084,
        "timestamp": "2025-12-08T23:34:02.757288+00:00",
        "meta_object_name": "1998-067XS",
        "meta_object_id": "1998-067XS",
        "meta_epoch": "2025-12-08T12:57:01.602432",
        "meta_mean_motion": 15.50249516,
        "meta_eccentricity": 0.000407,
        "meta_inclination": 51.6299,
        "meta_ra_of_asc_node": 163.2435,
        "meta_arg_of_pericenter": 183.7827,
        "meta_mean_anomaly": 176.3132,
        "meta_ephemeris_type": 0,
        "meta_classification_type": "U",
        "meta_norad_cat_id": 66906,
        "meta_element_set_no": 999,
        "meta_rev_at_epoch": 96,
        "meta_bstar": 0.00052843815,
        "meta_mean_motion_dot": 0.0003009,
        "meta_mean_motion_ddot": 0,
        "tle_line1": "1 66906U 98067XS  25342.53960188  .00030090  00000+0  52844-3 0  9990",
        "tle_line2": "2 66906  51.6299 163.2435 0004070 183.7827 176.3132 15.50249516   968"
      },
      "geometry": {
        "type": "Point",
        "coordinates": [
          125.09341707822216,
          -36.541550936412364
        ]
      }
    },
    {
      "type": "Feature",
      "properties": {
        "norad_id": 66907,
        "name": "1998-067XT",
        "group": "stations",
        "lat": -32.67262474310311,
        "lon": 130.49905035927665,
        "alt_km": 419.5094486624157,
        "timestamp": "2025-12-08T23:34:02.757332+00:00",
        "meta_object_name": "1998-067XT",
        "meta_object_id": "1998-067XT",
        "meta_epoch": "2025-12-08T12:55:42.371040",
        "meta_mean_motion": 15.507285,
        "meta_eccentricity": 0.00049427,
        "meta_inclination": 51.6299,
        "meta_ra_of_asc_node": 163.2377,
        "meta_arg_of_pericenter": 202.7949,
        "meta_mean_anomaly": 157.2822,
        "meta_ephemeris_type": 0,
        "meta_classification_type": "U",
        "meta_norad_cat_id": 66907,
        "meta_element_set_no": 999,
        "meta_rev_at_epoch": 96,
        "meta_bstar": 0.00115984,
        "meta_mean_motion_dot": 0.00068077,
        "meta_mean_motion_ddot": 0,
        "tle_line1": "1 66907U 98067XT  25342.53868485  .00068077  00000+0  11598-2 0  9994",
        "tle_line2": "2 66907  51.6299 163.2377 0004942 202.7949 157.2822 15.50728500   968"
      },
      "geometry": {
        "type": "Point",
        "coordinates": [
          130.49905035927665,
          -32.67262474310311
        ]
      }
    }
  ]
}